STARLINK-11722 [DTC]    
1 64128U 25111F   26152.13591455  .00222582  00000+0  16781-2 0  9995
2 64128  42.9981 190.8074 0001555 299.5694  60.5018 15.71037957 59712
STARLINK-11679 [DTC]    
1 64129U 25111G   26152.11998507  .00190920  00000+0  14559-2 0  9994
2 64129  43.0000 190.6825 0001909 298.3499  61.7176 15.70865096 59767
STARLINK-11735 [DTC]    
1 64130U 25111H   26152.14121713  .00213789  00000+0  16178-2 0  9994
2 64130  42.9985 190.8495 0001300 225.7988 134.2773 15.70976109 59617
STARLINK-11720 [DTC]    
1 64131U 25111J   26152.12529265  .00172177  00000+0  13164-2 0  9994
2 64131  42.9990 190.7221 0001483 261.4822  98.5878 15.70863166 59713
STARLINK-11718 [DTC]    
1 64132U 25111K   26152.16336690  .00247268  00000+0  18613-2 0  9995
2 64132  42.9990 191.0245 0002104 234.1948 125.8725 15.70999049 59817
STARLINK-11716 [DTC]    
1 64133U 25111L   26152.15714801  .00173807  00000+0  13294-2 0  9996
2 64133  43.0023 190.9736 0004516 287.7463  72.2912 15.70839549 59816
STARLINK-11714 [DTC]    
1 64134U 25111M   26152.17294472  .00357241  00000+0  26848-2 0  9991
2 64134  43.0005 190.2088 0002464 283.9742  76.0852 15.70704763 59777
STARLINK-11712 [DTC]    
1 64135U 25111N   26152.16776404  .00216108  00000+0  16400-2 0  9990
2 64135  42.9980 191.0603 0002475 197.2724 162.8059 15.70900674 59760
STARLINK-34254          
1 64136U 25111P   26151.90469449  .00039087  00000+0  14201-2 0  9996
2 64136  43.0027 327.6063 0001880 273.6052  86.4585 15.27632462 58194
STARLINK-34230          
1 64137U 25111Q   26152.16670139  .00121465  00000+0  64198-3 0  9999
2 64137  42.9859 296.9513 0027794 328.5870 164.7091 15.78911285  5793
STARLINK-34129          
1 64138U 25111R   26151.87915181  .00021726  00000+0  79662-3 0  9997
2 64138  43.0030 328.2783 0001846 269.4231  90.6409 15.27583699 58234
STARLINK-34212          
1 64139U 25111S   26151.84958123  .00032506  00000+0  11851-2 0  9991
2 64139  43.0037 328.0505 0002192 273.4871  86.5730 15.27591945 58180
STARLINK-34149          
1 64140U 25111T   26151.85986257  .00019579  00000+0  71888-3 0  9995
2 64140  43.0032 328.1251 0001323 257.2585 102.8118 15.27590737 58183
STARLINK-34054          
1 64141U 25111U   26151.85728735  .00026885  00000+0  98213-3 0  9990
2 64141  43.0032 328.1057 0001884 279.5875  80.4764 15.27606323 58186
STARLINK-34195          
1 64142U 25111V   26151.84573428  .00020583  00000+0  75528-3 0  9990
2 64142  42.9991 328.0187 0000721   2.3997 357.6858 15.27585403 58186
STARLINK-34133          
1 64143U 25111W   26151.84186911  .00028494  00000+0  10402-2 0  9996
2 64143  42.9993 327.9913 0001833 279.8832  80.1813 15.27603527 58185
STARLINK-34181          
1 64144U 25111X   26151.86371454  .00019024  00000+0  69878-3 0  9998
2 64144  43.0034 328.1532 0001437 256.6470 103.4221 15.27592526 58183
STARLINK-34186          
1 64145U 25111Y   26151.74194102  .00021156  00000+0  77579-3 0  9995
2 64145  43.0032 328.9632 0001583 265.3380  94.7291 15.27593271 58165
STARLINK-34314          
1 64146U 25112A   26152.07411766  .00003806  00000+0  26759-3 0  9998
2 64146  97.4182 203.1578 0001691 136.4221 223.7140 15.05657723 55859
STARLINK-33926          
1 64147U 25112B   26152.11565184  .00006605  00000+0  46146-3 0  9990
2 64147  97.4158 203.2583 0000844 115.3041 244.8274 15.05644258 55867
STARLINK-34213          
1 64148U 25112C   26152.08242535  .00006397  00000+0  44685-3 0  9993
2 64148  97.4174 203.1462 0002728  91.5387 268.6152 15.05659895 55853
STARLINK-33924          
1 64149U 25112D   26152.09072984  .00006733  00000+0  47012-3 0  9995
2 64149  97.4191 203.1386 0002223 135.6369 224.5037 15.05657782 55854
STARLINK-34209          
1 64150U 25112E   26152.10734031  .00045352  00000+0  31214-2 0  9993
2 64150  97.4221 203.2677 0001112 218.0682 142.0467 15.05721135 55860
STARLINK-34338          
1 64151U 25112F   26152.00002315  .00060261  00000+0  41485-2 0  9993
2 64151  97.4159 203.1864 0001487 155.3485  28.3843 15.05621047  5834
STARLINK-34348          
1 64152U 25112G   26152.13226953  .00006174  00000+0  43138-3 0  9995
2 64152  97.4170 203.2343 0001846 107.3265 252.8164 15.05663300 55869
STARLINK-34345          
1 64153U 25112H   26151.72521287  .00003151  00000+0  22233-3 0  9993
2 64153  97.4193 202.8629 0001731 143.7556 216.3789 15.05652596 55804
STARLINK-33945          
1 64154U 25112J   26152.11624352 -.00009421  00000+0 -64954-3 0  9999
2 64154  97.4210 211.7409 0001385 145.2771 214.8547 15.05661893 56414
STARLINK-34346          
1 64155U 25112K   26152.11013631  .00005522  00000+0  38649-3 0  9990
2 64155  97.4168 203.2727 0001629 116.6208 243.5186 15.05644728 55868
STARLINK-34277          
1 64156U 25112L   26152.07688468  .00003141  00000+0  22154-3 0  9991
2 64156  97.4188 203.1643 0002211 128.4873 231.6553 15.05664456 55859
STARLINK-34166          
1 64158U 25112N   26152.09349609  .00010788  00000+0  75035-3 0  9997
2 64158  97.4183 203.1396 0001236 113.1858 246.9499 15.05663043 55850
STARLINK-34344          
1 64159U 25112P   26152.08519321  .00004291  00000+0  30117-3 0  9991
2 64159  97.4177 203.1534 0001474 111.0133 249.1252 15.05655751 55854
STARLINK-34339          
1 64160U 25112Q   26152.13503907  .00003915  00000+0  27518-3 0  9995
2 64160  97.4185 203.2408 0001942 121.0247 239.1171 15.05656322 55868
STARLINK-34341          
1 64161U 25112R   26151.71967367  .00004977  00000+0  34875-3 0  9996
2 64161  97.4184 202.8793 0001658 134.2220 225.9144 15.05645776 55809
STARLINK-34317          
1 64162U 25112S   26152.10181718  .00006259  00000+0  43739-3 0  9993
2 64162  97.4177 203.2844 0001754  78.5217 281.6207 15.05656438 55869
STARLINK-34340          
1 64163U 25112T   26152.07965286  .00000583  00000+0  44414-4 0  9996
2 64163  97.4234 203.1651 0000887 143.9738 216.1549 15.05650592 55856
STARLINK-34263          
1 64164U 25112U   26152.07135013  .00004412  00000+0  30953-3 0  9991
2 64164  97.4180 203.1704 0001994 129.7381 230.4023 15.05657846 55857
STARLINK-33793          
1 64165U 25112V   26152.19596544  .00002892  00000+0  20439-3 0  9993
2 64165  97.4192 203.3149 0000973  96.5042 263.6296 15.05646930 55871
STARLINK-34313          
1 64166U 25112W   26151.92182426  .00010497  00000+0  73006-3 0  9992
2 64166  97.4201 203.0676 0002966  97.0848 263.0717 15.05668899 55835
STARLINK-34309          
1 64167U 25112X   26152.11288391  .00107805  00000+0  73324-2 0  9995
2 64167  97.4223 203.2727 0001746 111.2256 248.9158 15.05806235 55868
STARLINK-34303          
1 64168U 25112Y   26151.70583522  .00008395  00000+0  58493-3 0  9999
2 64168  97.4168 202.8975 0001328 106.1354 254.0019 15.05665278 55803
STARLINK-34175          
1 64169U 25112Z   26152.08795101 -.00003933  00000+0 -26860-3 0  9998
2 64169  97.4242 203.1526 0002487 114.4286 245.7201 15.05661799 55855
STARLINK-34177          
1 64170U 25113A   26151.91023260  .00031143  00000+0  10109-2 0  9992
2 64170  53.1595  64.0883 0000813  71.5920 288.5170 15.31707127 57819
STARLINK-34228          
1 64171U 25113B   26151.96147918  .00029250  00000+0  95062-3 0  9993
2 64171  53.1598  63.6895 0000864  45.7751 314.3321 15.31700682 57828
STARLINK-34233          
1 64172U 25113C   26151.94290692  .00021349  00000+0  69735-3 0  9999
2 64172  53.1626  64.2870 0001887 351.5063   8.5906 15.31718309 57816
STARLINK-34172          
1 64173U 25113D   26152.15257029  .00035575  00000+0  11531-2 0  9997
2 64173  53.1614  62.7500 0001280  73.4562 286.6580 15.31687265 57811
STARLINK-34202          
1 64174U 25113E   26152.14836382  .00020391  00000+0  69783-3 0  9995
2 64174  53.1609  63.4300 0001143  95.7442 264.3689 15.30239901 57849
STARLINK-34231          
1 64175U 25113F   26152.13398104  .00046089  00000+0  14851-2 0  9997
2 64175  53.1614  63.3423 0001095 117.1976 242.9137 15.31759332 57844
STARLINK-34191          
1 64176U 25113G   26152.12446992  .00034879  00000+0  10389-2 0  9992
2 64176  53.1611  62.5741 0001603  71.3747 288.7429 15.34391500 57853
STARLINK-34164          
1 64177U 25113H   26151.91032053  .00030648  00000+0  10420-2 0  9994
2 64177  53.1599  64.7936 0001427 110.7936 249.3218 15.30217841 57806
STARLINK-34227          
1 64178U 25113J   26152.15153441  .00032443  00000+0  11034-2 0  9994
2 64178  53.1602  63.4494 0001069  81.4479 278.6643 15.30179257 57844
STARLINK-34194          
1 64179U 25113K   26152.16223264  .00025787  00000+0  77255-3 0  9998
2 64179  53.1597  62.1000 0000993  97.8827 262.2288 15.34364943 57868
STARLINK-34000          
1 64180U 25113L   26151.94081103  .00034586  00000+0  11736-2 0  9997
2 64180  53.1611  64.2699 0001136 104.5023 255.6104 15.30222776 57774
STARLINK-33917          
1 64181U 25113M   26152.16313484  .00032314  00000+0  10980-2 0  9990
2 64181  53.1608  63.5200 0000984  93.5119 266.5994 15.30213377 57847
STARLINK-34131          
1 64182U 25113N   26152.14942404  .00019709  00000+0  67626-3 0  9992
2 64182  53.1594  63.4356 0001591  55.6323 304.4828 15.30176862 57805
STARLINK-34188          
1 64183U 25113P   26152.19451738  .00013398  00000+0  44514-3 0  9992
2 64183  53.1599  63.0111 0003629  65.7157 294.4223 15.31522948 57850
STARLINK-34197          
1 64184U 25113Q   26151.97246913  .00000182  00000+0  18281-4 0  9995
2 64184  53.1600  64.4646 0001268 105.5950 254.5191 15.30183091 57811
STARLINK-34063          
1 64185U 25113R   26152.18524193  .00021286  00000+0  69605-3 0  9992
2 64185  53.1589  62.9503 0000971  81.6713 278.4398 15.31685074 57851
STARLINK-34200          
1 64186U 25113S   26152.16190453  .00033344  00000+0  10821-2 0  9992
2 64186  53.1610  62.8067 0001515  81.0526 279.0647 15.31681038 57852
STARLINK-33934          
1 64187U 25113T   26152.15892037  .00012057  00000+0  41862-3 0  9997
2 64187  53.1604  63.4953 0001337  88.7067 271.4087 15.30195335 57801
